GLOBALSTAR M023         
1 25621U 99004A   24249.81398659  .00000024  00000+0  71332-3 0  9992
2 25621  52.0090 199.3487 0009701 219.0615 175.4938 12.62468310179812
GLOBALSTAR M040         
1 25622U 99004B   24250.16888722 -.00000066  00000+0  20835-3 0  9997
2 25622  51.9898 201.9989 0000888 106.0904 358.8995 12.61981845179695
GLOBALSTAR M036         
1 25623U 99004C   24249.24484244  .00000013  00000+0  13961-2 0  9998
2 25623  51.9953 271.3564 0010929 223.8077 239.0315 11.86582390145152
GLOBALSTAR M038         
1 25624U 99004D   24249.93725876 -.00000051  00000+0  36394-3 0  9993
2 25624  51.9966 170.1667 0001468 166.9297 269.6745 12.32506962167328
GLOBALSTAR M022         
1 25649U 99012A   24249.72551279 -.00000080  00000+0  85072-4 0  9990
2 25649  52.0075 344.1933 0001985 335.9342 144.3672 12.02487747142158
GLOBALSTAR M041         
1 25650U 99012B   24250.14098765 -.00000075  00000+0  12755-3 0  9997
2 25650  51.9991 215.8520 0002643 118.4985 241.6117 11.96660324144524
GLOBALSTAR M046         
1 25651U 99012C   24250.19653094  .00000047  00000+0  14941-2 0  9991
2 25651  52.0060 303.4152 0002286  54.3802 339.7911 12.09395411149655
GLOBALSTAR M037         
1 25652U 99012D   24249.48008623 -.00000058  00000+0  25706-3 0  9999
2 25652  52.0030 331.0900 0001383 269.0906 203.9010 12.62416566175316
